163P/NEAT,e,12.7169,102.0665,349.5571,3.764500,0.1349408,0.45268837,180.3352,04/03.0/2023,2000,g 14.5,4.0
# From MPEC 2021-F20
164P/Christensen,e,16.2709,88.2654,325.8798,3.654145,0.1410995,0.54101236,249.1774,04/03.0/2023,2000,g 11.0,4.0
# From MPC 75721
165P/LINEAR,e,15.8952,0.8561,125.7796,17.83564,0.0130849,0.61677590,109.2949,04/03.0/2023,2000,g 11.5,2.0
# From MPC 75722
166P/NEAT,e,15.3857,64.3432,321.6855,13.81686,0.0191907,0.38461131,145.9861,04/03.0/2023,2000,g  5.5,4.0
# From MPC 75722
167P/CINEOS,e,19.1011,295.7449,344.7949,16.25302,0.0150419,0.26960322,120.4284,04/03.0/2023,2000,g  9.5,2.0
# From MPC102101
168P/Hergenrother,e,21.6214,355.4491,15.0368,3.582377,0.1453608,0.62120036,194.1617,04/03.0/2023,2000,g 15.5,4.0
# From MPEC 2023-FK0
169P/NEAT,e,11.2982,176.1010,218.0566,2.602701,0.2347295,0.76834520,62.7455,04/03.0/2023,2000,g 16.0,2.0
# From MPEC 2023-A50
170P/Christensen,e,10.1179,142.9089,225.3843,4.209821,0.1141060,0.30547111,358.1110,04/03.0/2023,2000,g 12.0,4.0
# From MPC102102
171P/Spahr,e,21.9477,101.6883,347.0472,3.553631,0.1471281,0.50222460,226.6540,04/03.0/2023,2000,g 13.5,4.0
# From MPEC 2023-FK0
172P/Yeung,e,11.2253,30.8751,209.2194,4.217630,0.1137893,0.20452082,252.3227,04/03.0/2023,2000,g 13.0,4.0
# From MPEC 2022-X67
173P/Mueller,e,16.4892,100.3784,29.1512,5.710082,0.0722338,0.26156934,34.1373,04/03.0/2023,2000,g  7.5,4.0
# From MPC 92985
174P/Echeclus,e,4.3439,173.1888,163.4249,10.74560,0.0279807,0.45683897,81.1020,04/03.0/2023,2000,g  9.4,2.0
# From MPC114608
175P/Hergenrother,e,4.9172,111.2719,74.5957,3.645610,0.1415953,0.38886462,184.1861,04/03.0/2023,2000,g 14.0,4.0
# From MPC 89015
176P/LINEAR,e,0.2313,345.8295,34.3613,3.196631,0.1724508,0.19276497,22.9914,04/03.0/2023,2000,g 15.1,2.0
# From MPEC 2020-L06
177P/Barnard,e,31.0965,271.8798,60.6453,24.49556,0.0081297,0.95510984,49.2071,04/03.0/2023,2000,g 15.0,4.0
# From MPEC 2021-F20
178P/Hug-Bell,e,11.0876,102.8287,297.8594,3.632704,0.1423505,0.48249447,140.9005,04/03.0/2023,2000,g 14.6,4.0
# From MPEC 2023-F81
179P/Jedicke,e,19.8973,115.5147,297.0010,5.932779,0.0682051,0.30585529,20.9449,04/03.0/2023,2000,g  2.5,8.0
# From MPEC 2023-FK0
180P/NEAT,e,16.8601,84.5675,94.6698,3.867379,0.1295923,0.35335552,347.0140,04/03.0/2023,2000,g 11.0,4.0
# From MPC 89012
181P/Shoemaker-Levy,e,17.4862,35.3953,336.2755,3.875710,0.1291746,0.70056220,58.0303,04/03.0/2023,2000,g 11.5,4.0
# From MPEC 2014-J10
182P/LONEOS,e,16.2291,72.4573,54.2197,2.950210,0.1945023,0.66327298,63.3588,04/03.0/2023,2000,g 18.0,4.0
# From MPEC 2023-A50
183P/Korlevic-Juric,e,18.9637,3.9880,167.2812,4.656829,0.0980773,0.10883682,197.1770,04/03.0/2023,2000,g 12.5,2.0
# From MPEC 2020-W26
184P/Lovas,e,4.5739,173.2408,186.5576,3.797632,0.1331787,0.55089093,118.3491,04/03.0/2023,2000,g 13.5,4.0
# From MPC109593
185P/Petriew,e,14.0146,214.1146,181.8918,3.097887,0.1807614,0.69970325,341.7599,04/03.0/2023,2000,g 15.0,4.0
# From MPEC 2022-X67
186P/Garradd,e,28.6555,326.3218,269.5441,4.854706,0.0921424,0.12407652,142.9831,04/03.0/2023,2000,g  7.5,4.0
# From MPEC 2020-SI8
187P/LINEAR,e,13.6378,109.8824,131.3036,4.564445,0.1010700,0.15254909,180.7758,04/03.0/2023,2000,g  9.0,4.0
# From MPEC 2022-K19
188P/LINEAR-Mueller,e,10.5254,358.9610,26.6514,4.370260,0.1078806,0.41683827,240.7130,04/03.0/2023,2000,g 11.5,4.0
# From MPEC 2022-QD9
189P/NEAT,e,20.0703,281.6973,16.3332,2.945672,0.1949519,0.58880365,42.3350,04/03.0/2023,2000,g 19.0,4.0
# From MPEC 2020-K19
190P/Mueller,e,2.1741,335.5287,50.4214,4.229944,0.1132928,0.52223087,288.5103,04/03.0/2023,2000,g 13.0,4.0
# From MPEC 2022-X67
191P/McNaught,e,8.8396,98.2165,284.1488,3.637947,0.1420429,0.38596808,105.6130,04/03.0/2023,2000,g 13.0,4.0
# From MPC 75724
192P/Shoemaker-Levy,e,24.5875,51.6110,313.0621,6.466104,0.0599432,0.77343164,334.9829,04/03.0/2023,2000,g 15.0,4.0
# From MPEC 2022-Y15
193P/LINEAR-NEAT,e,10.6876,335.1786,8.1088,3.576932,0.1456928,0.39359602,85.3537,04/03.0/2023,2000,g 14.0,4.0
# From MPC 98566
194P/LINEAR,e,11.8166,349.5742,128.4802,4.127269,0.1175465,0.56409560,323.9115,04/03.0/2023,2000,g 16.0,4.0
# From MPEC 2023-D72
195P/Hill,e,36.3511,243.1117,249.3303,6.507199,0.0593763,0.31478830,309.7935,04/03.0/2023,2000,g  8.5,4.0
# From MPEC 2022-YN2
196P/Tichy,e,19.3017,24.1124,12.0405,3.803526,0.1328693,0.42807084,20.6873,04/03.0/2023,2000,g 13.5,4.0
# From MPC 94676
197P/LINEAR,e,25.5282,66.3605,188.7568,2.868000,0.2029250,0.62935623,23.5940,04/03.0/2023,2000,g 16.5,2.0
# From NK 1596
198P/ODAS,e,1.3385,358.2112,69.2260,3.596008,0.1445350,0.44440226,226.9119,04/03.0/2023,2000,g  9.0,4.0
# From MPEC 2023-FK0
199P/Shoemaker,e,24.9364,92.3484,191.7724,5.883065,0.0690714,0.50529842,351.2573,04/03.0/2023,2000,g  9.0,4.0
# From MPEC 2022-C56
200P/Larsen,e,12.0982,234.7362,134.3394,4.946946,0.0895774,0.33253940,120.2851,04/03.0/2023,2000,g  9.0,4.0
# From MPC 93588
201P/LONEOS,e,5.7395,19.7445,41.5448,3.354723,0.1604054,0.63739385,108.4529,04/03.0/2023,2000,g 14.0,4.0
# From MPEC 2022-X67
202P/Scotti,e,2.1408,177.3314,274.6265,4.119600,0.1178749,0.25603301,311.6209,04/03.0/2023,2000,g 13.5,4.0
# From MPEC 2021-S45
203P/Korlevic,e,2.9731,290.2807,154.7875,4.669284,0.0976852,0.31581597,109.7933,04/03.0/2023,2000,g 14.5,2.0
# From MPEC 2023-FK0
204P/LINEAR-NEAT,e,6.5960,108.4985,356.6581,3.582030,0.1453819,0.48789018,19.9361,04/03.0/2023,2000,g 14.0,4.0
# From MPEC 2023-A50
205P/Giacobini,e,15.3062,179.6033,154.1761,3.542050,0.1478502,0.56793189,65.7007,04/03.0/2023,2000,g 13.0,4.0
# From MPC 75725
206P/Barnard-Boattini,e,33.6408,202.3307,189.5405,3.490210,0.1511565,0.55153023,114.7706,04/03.0/2023,2000,g 19.0,4.0
# From MPC 75725
207P/NEAT,e,10.2014,198.1610,273.0236,3.880357,0.1289426,0.75840999,320.8269,04/03.0/2023,2000,g 16.0,4.0
# From MPEC 2022-K19
208P/McMillan,e,4.4125,36.3398,310.6089,4.041297,0.1213174,0.37411966,298.2892,04/03.0/2023,2000,g 12.5,4.0
# From MPEC 2023-CD7
209P/LINEAR,e,21.2721,62.7652,152.4468,2.959682,0.1935694,0.67357668,269.2853,04/03.0/2023,2000,g 17.0,2.0
# From MPC105242
210P/Christensen,e,10.2764,93.8022,345.9044,3.162894,0.1752174,0.83372006,190.9559,04/03.0/2023,2000,g 13.5,4.0
# From MPEC 2023-FK0
211P/Hill,e,18.9188,117.1292,4.2937,3.548011,0.1474778,0.34398070,26.5979,04/03.0/2023,2000,g 12.5,4.0
# From MPEC 2021-F20
212P/NEAT,e,22.1456,98.0425,14.0356,3.900410,0.1279495,0.58700360,310.3395,04/03.0/2023,2000,g 17.0,2.0
# From MPEC 2022-GA9
213P/Van Ness,e,10.3808,311.2773,5.7647,3.345780,0.1610490,0.40808528,324.1302,04/03.0/2023,2000,g 10.5,4.0
# From MPC 92986
214P/LINEAR,e,15.1829,348.2466,190.1708,3.619572,0.1431259,0.48588798,27.0235,04/03.0/2023,2000,g 13.0,4.0
# From MPEC 2023-B57
215P/NEAT,e,10.5771,56.6780,262.4137,4.331501,0.1093318,0.16603487,134.5585,04/03.0/2023,2000,g 11.0,4.0
# From MPC100284
216P/LINEAR,e,9.0635,359.8017,151.6957,3.857948,0.1300677,0.44855580,323.7377,04/03.0/2023,2000,g 13.0,4.0
# From MPEC 2021-N06
217P/LINEAR,e,12.8621,125.4194,246.9504,3.948235,0.1256318,0.68930188,261.6606,04/03.0/2023,2000,g 12.0,4.0
# From MPEC 2022-K19
218P/LINEAR,e,2.7306,176.0131,59.5392,3.087500,0.1816744,0.62346994,165.5069,04/03.0/2023,2000,g 16.0,4.0
# From MPC100284
219P/LINEAR,e,11.5396,230.9524,107.5910,3.646163,0.1415630,0.35407675,315.1637,04/03.0/2023,2000,g 11.0,4.0
# From MPEC 2021-BE3
220P/McNaught,e,8.1272,150.1059,180.6081,3.117896,0.1790241,0.50126391,151.0057,04/03.0/2023,2000,g 15.0,4.0
# From MPEC 2022-UY9
221P/LINEAR,e,11.4631,229.5902,40.1136,3.457146,0.1533301,0.49428004,72.1539,04/03.0/2023,2000,g 14.5,4.0
# From MPC 92277
222P/LINEAR,e,5.0978,6.7748,346.2818,2.898516,0.1997287,0.71477133,278.9386,04/03.0/2023,2000,g 20.0,4.0
# From MPEC 2023-A50
223P/Skiff,e,27.0215,346.7641,37.8707,4.158576,0.1162217,0.41654809,177.2339,04/03.0/2023,2000,g 12.0,4.0
# From MPEC 2023-BF4
224P/LINEAR-NEAT,e,13.3058,40.0382,16.6856,3.443663,0.1542315,0.40583413,28.5334,04/03.0/2023,2000,g 15.5,4.0
# From MPC 75727
225P/LINEAR,e,21.3668,14.2042,3.9185,3.647922,0.1414607,0.63848117,342.0253,04/03.0/2023,2000,g 18.0,4.0
# From MPC106349
226P/Pigott-LINEAR-Kowalski,e,44.0447,54.0133,341.0790,3.765906,0.1348652,0.52898591,323.8206,04/03.0/2023,2000,g 12.5,4.0
# From MPC102956
227P/Catalina-LINEAR,e,7.5086,36.8119,105.4563,3.442500,0.1543097,0.52815084,307.5400,04/03.0/2023,2000,g 16.5,2.0
# From MPEC 2022-HC2
228P/LINEAR,e,7.9132,30.9861,114.8304,4.166382,0.1158952,0.17638482,129.9222,04/03.0/2023,2000,g 14.1,4.0
# From MPC106349
229P/Gibbs,e,26.0918,157.8997,224.0838,3.925945,0.1267033,0.37796353,270.9947,04/03.0/2023,2000,g 13.0,4.0
# From MPEC 2023-FK0
230P/LINEAR,e,15.4682,106.9747,313.4670,3.452934,0.1536107,0.54560959,58.3114,04/03.0/2023,2000,g 13.0,4.0
# From MPEC 2022-K19
231P/LINEAR-NEAT,e,12.2906,132.9552,44.2009,4.048581,0.1209901,0.24239748,168.1110,04/03.0/2023,2000,g 14.5,2.0
# From MPC112394
232P/Hill,e,14.6433,56.0257,53.2265,4.474658,0.1041272,0.33492148,151.8245,04/03.0/2023,2000,g 11.5,4.0
# From MPEC 2021-N06
233P/La Sagra,e,11.2892,74.9174,26.9595,3.028272,0.1870302,0.41230362,170.8022,04/03.0/2023,2000,g 15.0,4.0
# From MPEC 2022-K19
234P/LINEAR,e,11.5356,179.5716,357.3367,3.796213,0.1332534,0.25652127,284.1255,04/03.0/2023,2000,g 12.0,4.0
# From MPC110497
235P/LINEAR,e,10.1807,202.1389,336.4219,3.805248,0.1327791,0.37612046,230.8089,04/03.0/2023,2000,g 12.0,4.0
# From MPC107688
236P/LINEAR,e,16.3514,245.5717,119.3502,3.727752,0.1369410,0.50940646,267.8904,04/03.0/2023,2000,g 14.0,4.0
# From MPEC 2023-FK0
237P/LINEAR,e,14.0167,245.3587,25.2616,3.510808,0.1498282,0.43402023,353.7553,04/03.0/2023,2000,g 14.5,2.0
# From MPEC 2022-YN2
238P/Read,e,1.2640,51.6259,324.1923,3.165232,0.1750232,0.25141591,52.7946,04/03.0/2023,2000,g 14.5,4.0
# From MPEC 2021-F20
239P/LINEAR,e,11.3046,255.9330,220.3599,4.467179,0.1043888,0.63049334,161.2492,04/03.0/2023,2000,g 17.5,2.0
# From MPEC 2023-CD7
240P/NEAT,e,23.5316,74.9098,351.9602,3.863799,0.1297724,0.44995041,231.2628,04/03.0/2023,2000,g 11.0,4.0
# From MPEC 2022-J42
